ONEWEB-0229             
1 48779U 21045N   24118.86567403  .00000050  00000+0  99748-4 0  9997
2 48779  87.9038  54.4831 0001754  83.3293 276.8037 13.15549434141819
ONEWEB-0228             
1 48780U 21045P   24118.88073054  .00000104  00000+0  24285-3 0  9998
2 48780  87.9039  54.4567 0001804  81.7598 278.3737 13.15549275141732
ONEWEB-0232             
1 48781U 21045Q   24118.87360316  .00000085  00000+0  19217-3 0  9995
2 48781  87.9030  54.4818 0001814  83.3910 276.7427 13.15548393142054
ONEWEB-0231             
1 48782U 21045R   24118.85141649 -.00000097  00000+0 -29112-3 0  9990
2 48782  87.9049  54.5083 0001736  87.6568 272.4761 13.15549869141747
ONEWEB-0234             
1 48783U 21045S   24118.87121536  .00000021  00000+0  22601-4 0  9998
2 48783  87.9040  54.4674 0003305  77.9745 282.1755 13.15551213141889
ONEWEB-0238             
1 48784U 21045T   24118.82526763  .00000034  00000+0  55183-4 0  9990
2 48784  87.9041  54.4949 0002079  78.5643 281.5720 13.15548741141772
ONEWEB-0240             
1 48785U 21045U   24118.83477973 -.00000061  00000+0 -19681-3 0  9994
2 48785  87.9042  54.4606 0002026  94.1637 265.9725 13.15549736141803
ONEWEB-0246             
1 48786U 21045V   24118.82923381  .00000005  00000+0 -20193-4 0  9991
2 48786  87.9042  54.4655 0001738  80.0851 280.0475 13.15549652141671
